ONEWEB-0328             
1 49197U 21083M   25340.56828706  .00000153  00000+0  38286-3 0  9998
2 49197  87.8987 358.4860 0001601  89.5705 270.5608 13.13471222205613
ONEWEB-0331             
1 49198U 21083N   25340.64864032 -.00000025  00000+0 -96057-4 0  9991
2 49198  87.9183  13.6877 0001523 103.7760 256.3542 13.18685138204632
ONEWEB-0333             
1 49199U 21083P   25340.56320945  .00000003  00000+0 -26470-4 0  9990
2 49199  87.8967 358.5406 0001800  91.6427 268.4908 13.13471425205621
ONEWEB-0334             
1 49200U 21083Q   25340.34150863  .00000242  00000+0  56432-3 0  9993
2 49200  87.9190 312.9203 0002770  74.8894 285.2546 13.20770153211338
ONEWEB-0335             
1 49201U 21083R   25340.55812719 -.00000070  00000+0 -22584-3 0  9994
2 49201  87.8970 358.5304 0001614  97.6537 262.4775 13.13471258205638
ONEWEB-0336             
1 49202U 21083S   25340.60552515 -.00000053  00000+0 -18034-3 0  9992
2 49202  87.8974 358.5170 0001435 104.2308 255.8981 13.13470231205631
ONEWEB-0337             
1 49203U 21083T   25340.61554103 -.00000266  00000+0 -76354-3 0  9994
2 49203  87.8976 358.5264 0001521  92.0123 268.1181 13.13470361205636
ONEWEB-0338             
1 49204U 21083U   25340.61928681 -.00000012  00000+0 -61889-4 0  9998
2 49204  87.9189 312.8675 0002030  78.7037 281.4325 13.20772637211391
ONEWEB-0339             
1 49205U 21083V   25340.62414605 -.00000225  00000+0 -65078-3 0  9995
2 49205  87.8978 358.5071 0001731  87.2014 272.9313 13.13470779205615
ONEWEB-0340             
1 49206U 21083W   25340.63545373 -.00000003  00000+0 -40450-4 0  9996
2 49206  87.9187  13.6946 0001743  97.8574 262.2756 13.18685400204593
ONEWEB-0341             
1 49207U 21083X   25340.64204934 -.00000061  00000+0 -18857-3 0  9992
2 49207  87.9183  13.7047 0001352  86.1715 273.9571 13.18685404204618
ONEWEB-0342             
1 49208U 21083Y   25340.62559008  .00000071  00000+0  14290-3 0  9992
2 49208  87.9195 312.8371 0001909  80.8302 279.3047 13.20771121211369
ONEWEB-0343             
1 49209U 21083Z   25340.65029086  .00000025  00000+0  29948-4 0  9990
2 49209  87.9185  13.6956 0001642  76.4143 283.7172 13.18684265204664
ONEWEB-0344             
1 49210U 21083AA  25340.61906801 -.00000229  00000+0 -66287-3 0  9991
2 49210  87.8970 358.5403 0001347  86.7043 273.4240 13.13470515205614
ONEWEB-0345             
1 49211U 21083AB  25340.61060491 -.00000169  00000+0 -49854-3 0  9992
2 49211  87.8980 358.5011 0001388  84.5196 275.6092 13.13470506205621
ONEWEB-0346             
1 49212U 21083AC  25340.64699108  .00000045  00000+0  81144-4 0  9999
2 49212  87.9180  13.7118 0001769 116.4359 243.6955 13.18686487204604
ONEWEB-0348             
1 49213U 21083AD  25340.38884805  .00000028  00000+0  37039-4 0  9996
2 49213  87.9187 312.8904 0001245  92.1268 268.0008 13.20770682211361
ONEWEB-0350             
1 49214U 21083AE  25340.61991519 -.00000226  00000+0 -65386-3 0  9991
2 49214  87.8979 358.4965 0001409  91.0806 269.0485 13.13470324205658
ONEWEB-0351             
1 49215U 21083AF  25340.38239796  .00000072  00000+0  14559-3 0  9991
2 49215  87.9197 312.8879 0002268  62.8524 297.2840 13.20773942211326
ONEWEB-0352             
1 49216U 21083AG  25340.60045487  .00000029  00000+0  45506-4 0  9998
2 49216  87.8970 358.5243 0001974  81.3305 278.8048 13.13469721205746
ONEWEB-0354             
1 49217U 21083AH  25340.63504871  .00000083  00000+0  17307-3 0  9996
2 49217  87.9198 312.8365 0001552  83.7471 276.3839 13.20769698211393
ONEWEB-0355             
1 49218U 21083AJ  25340.55318729 -.00000171  00000+0 -50371-3 0  9991
2 49218  87.8973 358.5462 0001637  84.6475 275.4841 13.13471580205610
ONEWEB-0357             
1 49219U 21083AK  25340.63189292  .00000095  00000+0  20146-3 0  9992
2 49219  87.9195 312.8335 0001804  79.1826 280.9510 13.20773834211396
ONEWEB-0332             
1 49279U 21090A   25340.26006061  .00000077  00000+0  17194-3 0  9996
2 49279  87.8978 328.1545 0001989  85.4372 274.6985 13.14502519202235
ONEWEB-0347             
1 49280U 21090B   25340.31941188  .00000094  00000+0  19949-3 0  9991
2 49280  87.9187 312.9066 0002103  87.8877 272.2497 13.20773165205581
ONEWEB-0349             
1 49281U 21090C   25340.35095852  .00000170  00000+0  38560-3 0  9999
2 49281  87.9183 312.8995 0001793  80.8331 279.3005 13.20774688204370
ONEWEB-0353             
1 49282U 21090D   25340.25212030  .00000000  00000+0 -33635-4 0  9990
2 49282  87.8988 328.1409 0002020  86.9985 273.1375 13.14503650202236
ONEWEB-0356             
1 49283U 21090E   25340.34938722  .00000191  00000+0  43830-3 0  9991
2 49283  87.9197 312.8914 0002103 109.9816 250.1544 13.20770230204379
ONEWEB-0358             
1 49284U 21090F   25340.37937207  .00000042  00000+0  70725-4 0  9991
2 49284  87.9195 312.8866 0001717  87.6208 272.5122 13.20770575205105
ONEWEB-0359             
1 49285U 21090G   25340.37622414  .00000049  00000+0  87681-4 0  9999
2 49285  87.9190 312.8870 0001361  82.9296 277.1992 13.20772231205080
ONEWEB-0360             
1 49286U 21090H   25340.21525471 -.00000011  00000+0 -59921-4 0  9995
2 49286  87.9189 312.9276 0001690  82.4652 277.6674 13.20772330204379
ONEWEB-0361             
1 49287U 21090J   25340.34781898  .00000164  00000+0  37150-3 0  9993
2 49287  87.9190 312.8971 0001760  89.9630 270.1705 13.20773105204845
ONEWEB-0362             
1 49288U 21090K   25340.45094087  .00000091  00000+0  19598-3 0  9998
2 49288  87.9191 343.3366 0001742  80.5498 279.5831 13.19724451201492
ONEWEB-0363             
1 49289U 21090L   25340.36360526  .00000144  00000+0  32288-3 0  9993
2 49289  87.9199 312.8913 0001801  97.2024 262.9314 13.20771097204851
ONEWEB-0364             
1 49290U 21090M   25340.62874834  .00000102  00000+0  21866-3 0  9990
2 49290  87.9188 312.8627 0001837  88.4330 271.7013 13.20770691206028
ONEWEB-0365             
1 49291U 21090N   25340.46041954  .00000046  00000+0  83428-4 0  9992
2 49291  87.9210 343.2986 0001848  88.0295 272.1050 13.19724024201005
ONEWEB-0366             
1 49292U 21090P   25340.40119190  .00000054  00000+0  11017-3 0  9998
2 49292  87.8979 328.1283 0001704  88.8059 271.3266 13.14503703202236
ONEWEB-0367             
1 49293U 21090Q   25340.36202428  .00000178  00000+0  40600-3 0  9998
2 49293  87.9199 312.8911 0001885  78.1614 281.9731 13.20770223204370
ONEWEB-0368             
1 49294U 21090R   25340.63822823  .00000088  00000+0  18469-3 0  9994
2 49294  87.9188 312.8663 0002515  95.1146 265.0274 13.20770603205562
ONEWEB-0369             
1 49295U 21090S   25340.30403798 -.00000002  00000+0 -37178-4 0  9992
2 49295  87.9199 343.3578 0001838  88.3412 271.7931 13.19723377200974
ONEWEB-0370             
1 49296U 21090T   25340.59875924  .00000064  00000+0  12438-3 0  9995
2 49296  87.9191 312.8489 0001627  76.1392 283.9922 13.20770161204443
ONEWEB-0371             
1 49297U 21090U   25340.53939132  .00000059  00000+0  11401-3 0  9995
2 49297  87.9198 343.2981 0001776  85.3127 274.8209 13.19724012201041
ONEWEB-0372             
1 49298U 21090V   25340.36029147 -.00000105  00000+0 -29127-3 0  9991
2 49298  87.9189 312.8967 0001950  83.0379 277.0976 13.20770921204384
ONEWEB-0373             
1 49299U 21090W   25340.38726328  .00000011  00000+0 -58049-5 0  9991
2 49299  87.9185 312.9043 0001684  84.9655 275.1670 13.20774358205578
ONEWEB-0374             
1 49300U 21090X   25340.38849025 -.00000161  00000+0 -46899-3 0  9999
2 49300  87.8985 328.1092 0001981 103.5096 256.6254 13.14504779202231
ONEWEB-0375             
1 49301U 21090Y   25340.37464295 -.00000529  00000+0 -13322-2 0  9993
2 49301  87.9183 312.8874 0001728 101.4588 258.6739 13.20808956205079
ONEWEB-0376             
1 49302U 21090Z   25340.31035605 -.00000706  00000+0 -17950-2 0  9995
2 49302  87.9205 343.3311 0002046  86.7885 273.3482 13.19729875201018
ONEWEB-0377             
1 49303U 21090AA  25340.58784255  .00000058  00000+0  11058-3 0  9999
2 49303  87.9197 312.8453 0001621  83.7673 276.3645 13.20773535205097
ONEWEB-0378             
1 49304U 21090AB  25340.38267602  .00000056  00000+0  10563-3 0  9998
2 49304  87.9193 312.9009 0001780  88.7360 271.3977 13.20770201204332
ONEWEB-0379             
1 49305U 21090AC  25340.23149064 -.00000303  00000+0 -85278-3 0  9996
2 49305  87.8987 328.1490 0001831  90.3114 269.8225 13.14500175202216
ONEWEB-0380             
1 49306U 21090AD  25340.45883820  .00000071  00000+0  14425-3 0  9992
2 49306  87.9199 343.3239 0001578  93.9809 266.1504 13.19724085201000
ONEWEB-0381             
1 49307U 21090AE  25340.20576806  .00000044  00000+0  77241-4 0  9995
2 49307  87.9196 312.9244 0001676  91.0557 269.0769 13.20769652204351
ONEWEB-0382             
1 49308U 21090AF  25340.34465142  .00000127  00000+0  28009-3 0  9990
2 49308  87.9200 312.8925 0001844  94.2679 265.8665 13.20773985204364
ONEWEB-0383             
1 49309U 21090AG  25340.37739933 -.00000125  00000+0 -37062-3 0  9995
2 49309  87.8989 328.1038 0001898  91.7116 268.4231 13.14503225202266
ONEWEB-0384             
1 49310U 21090AH  25340.18669633  .00000022  00000+0  22556-4 0  9992
2 49310  87.9208 312.9593 0002014  99.5841 260.5520 13.20798206204350
ONEWEB-0385             
1 49311U 21090AJ  25340.63978503  .00000105  00000+0  22623-3 0  9998
2 49311  87.9187 312.8390 0001831  89.3602 270.7741 13.20769435204382
ONEWEB-0386             
1 49312U 21090AK  25340.35412424  .00000135  00000+0  29958-3 0  9994
2 49312  87.9200 312.8792 0001920  90.9155 269.2198 13.20769721204360
ONEWEB-0387             
1 49313U 21090AL  25340.33835574 -.00001031  00000+0 -25672-2 0  9994
2 49313  87.9189 312.9287 0001577  90.0231 270.1083 13.20778977204368
ONEWEB-0388             
1 49314U 21090AM  25340.45409276  .00000078  00000+0  16341-3 0  9996
2 49314  87.9188 343.3260 0001806  94.6207 265.5132 13.19724034200996
